{"type":"FeatureCollection","metadata":{"name":"Зоны доставки","creator":"Yandex Map Constructor"},"features":[{"type":"Feature","id":0,"geometry":{"type":"Polygon","coordinates":[[[38.182649990523814,55.583173787359556],[38.214695442931784,55.56982307827843],[38.253031155074524,55.55576864703802],[38.26367416044561,55.56121716067449],[38.26324500700324,55.567734921121094],[38.27311553617805,55.57945442898733],[38.25071372648569,55.58801085467101],[38.2143644299159,55.59680840709623],[38.190203091109765,55.58912888556734],[38.182649990523814,55.583173787359556]]]},"properties":{"description":"Зона 1","fill":"#1bad03","fill-opacity":0.6,"stroke":"#56db40","stroke-width":"5","stroke-opacity":0.9}},{"type":"Feature","id":1,"geometry":{"type":"Polygon","coordinates":[[[38.15806004646819,55.593013102437034],[38.182607623372476,55.58329099085483],[38.18998906258146,55.58917315734186],[38.20526692513028,55.59398518057035],[38.15188023689786,55.61759924619366],[38.13505742195647,55.60253842543289],[38.15806004646819,55.593013102437034]]]},"properties":{"description":"Зона 2","fill":"#e6761b","fill-opacity":0.6,"stroke":"#ff931e","stroke-width":"5","stroke-opacity":0.9}},{"type":"Feature","id":2,"geometry":{"type":"Polygon","coordinates":[[[38.266464737458776,55.582188899501524],[38.2731809888321,55.579356799864115],[38.28554060797273,55.5766339011804],[38.29206374029695,55.57181974130266],[38.29661276678618,55.57318138198752],[38.302878407045064,55.576925649408224],[38.29867270330972,55.582176745022544],[38.2972994122941,55.58650350667309],[38.28974631170815,55.59209355685223],[38.29129126410074,55.59403773470012],[38.28923132757728,55.59432935303388],[38.28665640692299,55.595350000061934],[38.287171391053846,55.59778000472109],[38.281849888368306,55.599869687845874],[38.27438261847085,55.59520419497602],[38.26768782476969,55.59909214439262],[38.26528456549233,55.59782860327261],[38.262194660707166,55.59894635327218],[38.25764563421791,55.59466957167846],[38.251809147401524,55.59671082129792],[38.24459936956949,55.590003457779396],[38.25208809713902,55.58780387231418],[38.259405163331635,55.58492356494852],[38.266464737458776,55.582188899501524]]]},"properties":{"description":"Зона 2","fill":"#e6761b","fill-opacity":0.6,"stroke":"#ff931e","stroke-width":"5","stroke-opacity":0.9}},{"type":"Feature","id":3,"geometry":{"type":"Polygon","coordinates":[[[38.28403905654693,55.54767589445363],[38.28730062270904,55.55414725809681],[38.296827829129924,55.55881765262578],[38.30592588210845,55.562222797193876],[38.292278802640666,55.57219330138792],[38.2855840089395,55.577007415275254],[38.273310220487346,55.57943856065886],[38.26343969131254,55.56786495567582],[38.26386884475493,55.561201284944154],[38.25305417800689,55.55565546727492],[38.28120664382719,55.54558342014439],[38.28403905654693,55.54767589445363]]]},"properties":{"description":"Зона 2","fill":"#e6761b","fill-opacity":0.6,"stroke":"#ff931e","stroke-width":"5","stroke-opacity":0.9}},{"type":"Feature","id":4,"geometry":{"type":"Point","coordinates":[38.21121551653255,55.572140786212834]},"properties":{"iconCaption":"Бар Борода","marker-color":"#1e98ff"}}]}
